IRIDIUM 119             
1 42959U 17061E   25271.14591170 -.00000046  00000+0 -23317-4 0  9990
2 42959  86.3979 134.8190 0002109  91.9579 268.1858 14.34216970417255
IRIDIUM 107             
1 42960U 17061F   25271.16494059 -.00000066  00000+0 -30586-4 0  9990
2 42960  86.3977 134.8307 0002467  86.5534 273.5944 14.34216613417264
IRIDIUM 132             
1 42961U 17061G   25271.10150999  .00000056  00000+0  13004-4 0  9990
2 42961  86.3977 134.8391 0002205  85.1887 274.9560 14.34218685417253
IRIDIUM 136             
1 42962U 17061H   25271.13322128  .00000397  00000+0  13482-3 0  9996
2 42962  86.3979 134.8310 0002284  91.7423 268.4034 14.34215905417271
IRIDIUM 139             
1 42963U 17061J   25271.13956708 -.00000005  00000+0 -86918-5 0  9998
2 42963  86.3981 134.8859 0002181  84.3627 275.7817 14.34217786417283
IRIDIUM 125             
1 42964U 17061K   25270.98734448  .00000355  00000+0  11977-3 0  9993
2 42964  86.3985 135.0053 0002594  96.4708 263.6783 14.34213676417270
IRIDIUM 135             
1 43070U 17083A   25270.89170084  .00000003  00000+0 -61064-5 0  9991
2 43070  86.3919  71.6548 0001790  87.2512 272.8889 14.34217495406559
IRIDIUM 138             
1 43071U 17083B   25270.49846065  .00000022  00000+0  88654-6 0  9992
2 43071  86.3907  71.4768 0002025 105.0503 255.0917 14.34217815406483
